TELSTAR 12V             
1 41036U 15068A   26170.85877913 -.00000125  00000+0  00000+0 0  9995
2 41036   0.0150  33.7449 0002249  48.0576 120.4350  1.00271164 38658
YAOGAN-29               
1 41038U 15069A   26170.94400179 -.00000399  00000+0 -42345-4 0  9991
2 41038  98.0022 199.5814 0002478  50.0933 310.0497 14.83084764571032
ELEKTRO-L 2             
1 41105U 15074A   26169.03651196 -.00000126  00000+0  00000+0 0  9991
2 41105   6.6975  70.5132 0000902 256.1704 298.2263  1.00270556 38515
COSMOS 2513             
1 41121U 15075A   26171.19377041 -.00000143  00000+0  00000+0 0  9993
2 41121   0.0777  99.2256 0003151 333.8070 345.3758  1.00273662 38574
VELOX-CI                
1 41166U 15077A   26170.35837805  .00019279  00000+0  31315-3 0  9996
2 41166  14.9828  67.6401 0004781 263.6716  96.3066 15.49904102583064
KENT RIDGE 1            
1 41167U 15077B   26170.58638348  .00003326  00000+0  10531-3 0  9996
2 41167  14.9791 248.1477 0008250 272.4275  87.5102 15.23144229581469
DAMPE                   
1 41173U 15078A   26170.97922728  .00001114  00000+0  39978-4 0  9995
2 41173  97.4556 176.4600 0013744  68.4588 291.8116 15.30791810584972
GSAT0209 (GALILEO 12)   
1 41174U 15079A   26169.21194997 -.00000011  00000+0  00000+0 0  9996
2 41174  55.8280 101.2339 0005250 345.1239  14.8344  1.70473656 64794
GSAT0208 (GALILEO 11)   
1 41175U 15079B   26170.60543083 -.00000012  00000+0  00000+0 0  9997
2 41175  55.8273 101.1925 0004854 343.5334  16.4302  1.70473634 65232
ORBCOMM FM110           
1 41182U 15081D   26170.84335051  .00000460  00000+0  13345-3 0  9994
2 41182  47.0032 348.8841 0002482  92.0645 268.0525 14.58883660558018
ORBCOMM FM118           
1 41183U 15081E   26169.91880297  .00001935  00000+0  44524-3 0  9999
2 41183  47.0047 353.5866 0002527  37.2659 322.8402 14.58881067557988
ORBCOMM FM112           
1 41184U 15081F   26170.67666296  .00000364  00000+0  11315-3 0  9993
2 41184  46.9988 258.4754 0003862 227.9874 132.0683 14.58907266559311
ORBCOMM FM113           
1 41185U 15081G   26170.51639508  .00000211  00000+0  80781-4 0  9998
2 41185  47.0005 259.6104 0002375 232.5233 127.5437 14.58860259559276
ORBCOMM FM108           
1 41187U 15081J   26169.04056137  .00000258  00000+0  90814-4 0  9996
2 41187  47.0030 178.1625 0002987 224.9174 135.1471 14.58870752560204
ORBCOMM FM117           
1 41188U 15081K   26170.44429502  .00000119  00000+0  61424-4 0  9994
2 41188  46.9990 170.1588 0003559 233.3238 126.7321 14.58865978560450
ORBCOMM FM116           
1 41189U 15081L   26170.63017245  .00000383  00000+0  11710-3 0  9998
2 41189  47.0018 259.0706 0000519  92.5393 267.5552 14.58886246559294
EXPRESS-AMU1            
1 41191U 15082A   26170.54364881  .00000150  00000+0  00000+0 0  9991
2 41191   0.0009  12.4016 0002967  85.2485  41.9597  1.00274906 38293
GAOFEN-4                
1 41194U 15083A   26170.91391678 -.00000340  00000+0  00000+0 0  9992
2 41194   0.3657  83.7526 0004244 119.1948 139.8810  1.00273444 38556
BELINTERSAT-1           
1 41238U 16001A   26170.76054067  .00000101  00000+0  00000+0 0  9997
2 41238   0.0269 254.9569 0002287 151.9856 186.3094  1.00273792 38262
JASON-3                 
1 41240U 16002A   26170.95408484 -.00000050  00000+0  49793-4 0  9999
2 41240  66.0406 120.0178 0008483 272.6537  87.3510 12.87628098487609
IRNSS-1E                
1 41241U 16003A   26169.73041566 -.00000318  00000+0  00000+0 0  9999
2 41241  33.2372  59.7280 0018940 178.9729  42.9724  1.00277463 38098
EUTELSAT 9B             
1 41310U 16005A   26170.75218921  .00000056  00000+0  00000+0 0  9991
2 41310   0.0874  76.5134 0001681 334.4759 136.7426  1.00272548 38141
NAVSTAR 76 (USA 266)    
1 41328U 16007A   26164.87780105 -.00000028  00000+0  00000+0 0  9996
2 41328  55.5220  89.5909 0096120 247.4205 111.5460  2.00551861 75773
COSMOS 2514 [GLONASS-M] 
1 41330U 16008A   26170.63146802 -.00000059  00000+0  00000+0 0  9995
2 41330  65.0201 312.9226 0011376 198.2261 161.7251  2.13102571 80675
SENTINEL-3A             
1 41335U 16011A   26170.95162052  .00000027  00000+0  29064-4 0  9994
2 41335  98.6249 238.2957 0001415  99.4207 260.7134 14.26733280538458
HORYU-4                 
1 41340U 16012D   26170.93679715  .00470481  86038-4  95407-3 0  9996
2 41340  30.9843  58.8005 0006400 289.5711  70.4260 15.98312502571255
SES-9                   
1 41380U 16013A   26169.91631882 -.00000351  00000+0  00000+0 0  9997
2 41380   0.0107 340.0830 0002105 104.5244 260.7094  1.00270880 37455
EUTELSAT 65 WEST A      
1 41382U 16014A   26170.88004186 -.00000282  00000+0  00000+0 0  9992
2 41382   0.0508 337.2882 0002421 107.2673  75.1415  1.00273581 37551
IRNSS-1F                
1 41384U 16015A   26170.82806530  .00000151  00000+0  00000+0 0  9996
2 41384   5.3554  96.7216 0017431 184.9826 316.8793  1.00268746 37695
COSMOS 2515             
1 41394U 16020A   26170.97261988  .00001485  00000+0  10067-3 0  9990
2 41394  97.9755 186.5531 0022103 295.1125  64.7808 15.07962340560839
BEIDOU-2 IGSO-6         
1 41434U 16021A   26167.12386227 -.00000150  00000+0  00000+0 0  9994
2 41434  60.2243  38.0497 0057184 231.4868 132.3999  1.00259474 37472
